{
    "links": {
        "self": "http://www.neowsapp.com/rest/v1/neo/3741558?api_key=iIulBulltgU6a56xZRHN4H3l9WmuAYTsLGpBGhQ2"
    },
    "id": "3741558",
    "neo_reference_id": "3741558",
    "name": "(2016 CJ29)",
    "designation": "2016 CJ29",
    "nasa_jpl_url": "http://ssd.jpl.nasa.gov/sbdb.cgi?sstr=3741558",
    "absolute_magnitude_h": 24.0,
    "estimated_diameter": {
        "kilometers": {
            "estimated_diameter_min": 0.0421264611,
            "estimated_diameter_max": 0.0941976306
        },
        "meters": {
            "estimated_diameter_min": 42.1264610556,
            "estimated_diameter_max": 94.1976305719
        },
        "miles": {
            "estimated_diameter_min": 0.0261761612,
            "estimated_diameter_max": 0.0585316759
        },
        "feet": {
            "estimated_diameter_min": 138.2101784897,
            "estimated_diameter_max": 309.0473542854
        }
    },
    "is_potentially_hazardous_asteroid": false,
    "close_approach_data": [
        {
            "close_approach_date": "2016-01-29",
            "close_approach_date_full": "2016-Jan-29 00:51",
            "epoch_date_close_approach": 1454028660000,
            "relative_velocity": {
                "kilometers_per_second": "12.8280355573",
                "kilometers_per_hour": "46180.9280064172",
                "miles_per_hour": "28695.0327382096"
            },
            "miss_distance": {
                "astronomical": "0.1081143329",
                "lunar": "42.0564754981",
                "kilometers": "16173673.918310923",
                "miles": "10049854.9548718174"
            },
            "orbiting_body": "Earth"
        }
    ],
    "orbital_data": {
        "orbit_id": "8",
        "orbit_determination_date": "2017-04-06 08:28:43",
        "first_observation_date": "2016-02-04",
        "last_observation_date": "2016-02-17",
        "data_arc_in_days": 13,
        "observations_used": 42,
        "orbit_uncertainty": "8",
        "minimum_orbit_intersection": ".0903986",
        "jupiter_tisserand_invariant": "4.682",
        "epoch_osculation": "2457424.5",
        "eccentricity": ".2500412376134107",
        "semi_major_axis": "1.381184777227337",
        "inclination": "23.51076867336418",
        "ascending_node_longitude": "303.5793361656686",
        "orbital_period": "592.8926978414194",
        "perihelion_distance": "1.035831626156611",
        "perihelion_argument": "217.0715816332344",
        "aphelion_distance": "1.726537928298064",
        "perihelion_time": "2457451.278782187612",
        "mean_anomaly": "343.7401242709877",
        "mean_motion": ".6071925009545133",
        "equinox": "J2000",
        "orbit_class": {
            "orbit_class_type": "AMO",
            "orbit_class_description": "Near-Earth asteroid orbits similar to that of 1221 Amor",
            "orbit_class_range": "1.017 AU < q (perihelion) < 1.3 AU"
        }
    },
    "is_sentry_object": false
}